{"spkid": "20462238", "covariance": {"epoch": "2454727.5", "labels": ["e", "q", "tp", "node", "peri", "i"], "elements": [{"label": "e", "title": "eccentricity", "value": ".3480683514391761", "units": null, "name": "e", "sigma": 7.77548598870095e-08}, {"label": "q", "sigma": 6.15771185566732e-08, "name": "q", "units": "au", "title": "perihelion distance", "value": ".5023433326956086"}, {"name": "tp", "sigma": 2.49539141984552e-05, "units": "TDB", "title": "time of perihelion passage", "value": "2454650.818846186134", "label": "tp"}, {"units": "deg", "value": "331.6309851400748", "title": "longitude of the ascending node", "sigma": 7.77567494766067e-06, "name": "om", "label": "node"}, {"label": "peri", "units": "deg", "title": "argument of perihelion", "value": "7.073591039471411", "sigma": 2.1030976548016e-05, "name": "w"}, {"label": "i", "title": "inclination", "value": "7.214377718443076", "units": "deg", "sigma": 9.24374780193314e-06, "name": "i"}], "data": [["6.045818236048475E-15", "-4.756538753759429E-15", "1.508081820589122E-12", "-9.15604391960718E-14", "1.159038179481295E-12", "2.681722732794244E-13"], ["-4.756538753759429E-15", "3.791741529742589E-15", "-1.160959156894539E-12", "7.227043049537098E-14", "-9.069001513547769E-13", "-1.871328138045196E-13"], ["1.508081820589122E-12", "-1.160959156894539E-12", "6.226978338238618E-10", "-4.636509486736646E-11", "4.879482147514093E-10", "5.456448853282435E-11"], ["-9.15604391960718E-14", "7.227043049537098E-14", "-4.636509486736646E-11", "6.046112089167784E-11", "-9.251410377516361E-11", "-2.034240228395347E-11"], ["1.159038179481295E-12", "-9.069001513547769E-13", "4.879482147514093E-10", "-9.251410377516361E-11", "4.423019745632011E-10", "5.227974110525073E-11"], ["2.681722732794244E-13", "-1.871328138045196E-13", "5.456448853282435E-11", "-2.034240228395347E-11", "5.227974110525073E-11", "8.544687342574381E-11"]]}, "elements": [{"label": "e", "units": null, "value": ".347768064139549", "title": "eccentricity", "name": "e", "sigma": "7.7717E-8"}, {"title": "semi-major axis", "value": ".7706015778511034", "units": "au", "sigma": "9.7664E-9", "name": "a", "label": "a"}, {"label": "q", "units": "au", "title": "perihelion distance", "value": ".5026109588989431", "name": "q", "sigma": "6.1356E-8"}, {"title": "inclination; angle with respect to x-y ecliptic plane", "value": "7.217199690596795", "units": "deg", "sigma": "9.2469E-6", "name": "i", "label": "i"}, {"label": "node", "units": "deg", "value": "331.4304398968562", "title": "longitude of the ascending node", "name": "om", "sigma": "7.8849E-6"}, {"label": "peri", "sigma": "2.1214E-5", "name": "w", "units": "deg", "title": "argument of perihelion", "value": "7.282514012363525"}, {"title": "mean anomaly", "value": "180.4360511558141", "units": "deg", "name": "ma", "sigma": ".0002011", "label": "M"}, {"label": "tp", "title": "time of perihelion passage", "value": "2461323.742333999359", "units": "TDB", "name": "tp", "sigma": ".00014032"}, {"sigma": "4.6972E-6", "name": "per", "title": "sidereal orbital period", "value": "247.0832287068286", "units": "d", "label": "period"}, {"units": "deg/d", "title": "mean motion", "value": "1.456998930620056", "sigma": "2.7698E-8", "name": "n", "label": "n"}, {"name": "ad", "sigma": "1.3163E-8", "title": "aphelion distance", "value": "1.038592196803264", "units": "au", "label": "Q"}], "epoch": "2461200.5"}